#dP2019  1  8  0  0  0.00000000      96 __u+U ITR00 FIT  IAC
## 2035 172800.00000000   900.00000000 58491 0.0000000000000
+   94   C01C02C04C05C06C07C08C09C10C11C12C13C14E01E02E03E04
+        E05E07E08E09E11E12E13E14E15E18E19E21E24E25E26E27E30
+        E31E33E36G01G02G03G05G06G07G08G09G10G11G12G13G14G15
+        G16G17G18G19G20G21G22G23G24G25G26G27G28G29G30G31G32
+        J01J02J03J07R01R02R03R04R05R07R08R09R10R11R13R14R15
+        R17R18R19R20R21R22R23R24R26  0  0  0  0  0  0  0  0
++        12 12 12 12  8  9  9  8  9  8  8  8  8  4  5  5  6
++         5  5  5  5  5  5  6  5  6  5  5  5  5  5  4  5  5
++         5  6  6  3  3  3  3  3  3  3  3  3  3  3  3  3  3
++         3  3  3  3  3  3  3  3  3  4  3  3  3  3  3  3  3
++        10 10  9 16  5  5  5  5  5  6  6  5  5  5  5  5  5
++         5  5  5  5  5  5  5  6  8  0  0  0  0  0  0  0  0
%c M  cc GPS ccc cccc cccc cccc cccc ccccc ccccc ccccc ccccc
%c cc cc ccc ccc cccc cccc cccc cccc ccccc ccccc ccccc ccccc
%f  0.0000000  0.000000000  0.00000000000  0.000000000000000
%f  0.0000000  0.000000000  0.00000000000  0.000000000000000
%i    0    0    0    0      0      0      0      0         0
%i    0    0    0    0      0      0      0      0         0
/* INFORMATION & ANALYSIS CENTER (IAC) OF MCC   (RAPID DATA)
/* S/V CLOCKS ARE ALIGNED TO GPS & GLONASS TIME RESPECTIVELY
/* USING THE BROADCAST EPHEMERIS                            
/* PCV:IGS14_2029 OL/AL:FES2004  NONE     YN ORB:CoN CLK:CoN
*  2019 01 08 17 45  0.00000000
PC01 -32299.429084  27072.396173    752.307076     63.358620
PC02   4355.529550  41969.137509    309.765547   -230.601015
PC04 -39612.700031  14398.614944    540.659238   -222.465367
PC05  21893.601811  36034.914928    130.499599    -41.393802
PC06 -22010.382134  22658.086216 -27818.699593    249.279815
PC07 -18055.059567  37483.682336  -5024.701219    210.489883
PC08  -3827.036234  27359.415588  32025.132476     84.115749
PC09  -5764.131879  24542.086009 -33650.837852    433.341456
PC10  -7128.872792  40355.036590   9154.129995   -390.973027
PC11  26617.838085   7727.494088  -3478.953157    -82.609755
PC12   9040.130612  17433.515281  19931.349996    331.865652
PC13   5733.947022  33955.354740  24552.911738   -473.686221
PC14  14986.617709   7733.520851 -22172.233740    670.754213
PE01  16956.075971  -4352.847879  23871.082323   -516.531304
PE02 -16959.184250   4423.676225 -23853.806086     42.499442
PE03 -28604.812975   4679.803485   5968.423078   -119.955310
PE04  21677.817855 -16039.037737  12202.159826   -195.928979
PE05 -18826.327736  -9499.514301  20767.869333    128.481041
PE07  -1927.893019  18068.911921 -23364.559933   -108.869778
PE08 -21496.507069  16187.380190 -12322.399324   6427.342366
PE09   1836.114460 -17956.923165  23460.933736   6564.180539
PE11  -8156.593692 -22655.007708 -17221.100653   5719.339401
PE12  11093.752724 -12128.060495 -24606.156268   5898.376371
PE13   8142.651838  22535.756347  17390.136972    381.484060
PE14 -15621.332723  10605.021304  15181.227840   6462.845382
PE15 -10661.399728  12421.071321  24675.337026    923.503773
PE18  10358.476386 -18605.749660 -24151.508975   5621.213260
PE19  28340.011488  -3354.765015  -7853.304561     -9.281670
PE21  10541.866651  17643.003176  21303.430976   -513.447761
PE24   1811.430520 -28772.348734  -6666.147246   6296.297388
PE25 -10517.513984 -17676.498891 -21277.858084   1929.782775
PE26  22041.079728  19765.036003      9.753548   5042.447918
PE27  -2035.694859  28891.014962   6135.351173    553.745318
PE30 -13364.753388  23446.106155 -12181.020156   5204.477045
PE31  13413.251395 -23172.518196  12630.111670    937.714501
PE33  23299.184262   5008.689709 -17542.596907    847.881058
PE36 -22276.107490 -19491.741322    134.676657    761.996243
PG01 -17157.452993  -4689.808084  19654.686370   -142.051704
PG02  14563.574821  22156.520463  -2255.961146   -107.796143
PG03 -18888.727667   6452.584847  17448.069234    175.836193
PG05   9268.079366  13501.398192 -20995.078076      0.733913
PG06   5565.103328  24452.038974   8760.355450    300.816575
PG07 -11199.901976  11057.927627 -21087.814918     55.411358
PG08 -24834.335201  -6259.809922  -7337.507566   -128.376975
PG09 -21090.698384   8701.382274 -13655.568327    474.100419
PG10   9855.050387 -23593.209310   6859.063699    138.924587
PG11 -22511.142587  -5950.714242  12034.694953   -678.060271
PG12  18028.280740  -2783.151228  19039.745924    277.975874
PG13  19459.048003  12725.683808 -12987.911916    -78.984286
PG14  -4681.696805 -15685.100026  21250.921410    -93.464945
PG15  26163.568474   3051.416001  -5030.255561   -333.054632
PG16  -7672.810054 -13462.941027 -21671.482477    -11.514877
PG17  -6113.090510  14084.422040  22070.852933     -7.509203
PG18 -18232.715425 -14275.687096  12657.712429     13.794053
PG19   4381.181314  15040.643554  21137.872197   -365.443970
PG20  14248.680015 -22048.073837  -3649.292905    520.900638
PG21   7979.558774 -14795.200439 -19781.143200   -272.730808
PG22 -16959.464291  -1508.512060  20608.453568   -618.131995
PG23 -26359.963287   1774.217071  -4081.791819   -201.134736
PG24  18795.951092   8769.280969  16625.906883    -60.533130
PG25  18996.735244 -13992.139972  11750.721737   -703.048073
PG26   -697.932531 -20768.214901 -16455.996188     90.815729
PG27 -18121.889419 -11712.644337 -15759.494503    -45.618770
PG28 -12610.822457  22675.433671   6496.372580    761.311818
PG29  23578.736683  -4605.977328 -11342.542252    297.700412
PG30  -3399.048268  20927.289982 -15876.597565    -32.689029
PG31  -6945.431372 -24731.701475   5775.600562     67.166553
PG32   3037.201993 -15131.428944  21649.343723   -283.673951
PJ01 -33517.887005  25561.478907   3722.704914   -219.395116
PJ02 -19755.219586  28027.163640 -20124.164942     -0.792173
PJ03 -27215.906549  26142.708485  24209.612339      3.439796
PJ07 -25416.651399  33651.520285      9.604470    577.520252
PR01 -18212.885993  15503.110728  -8851.874838     37.633175
PR02   -872.822229  12511.869317 -22189.140048    348.415987
PR03  15570.598829   2244.185916 -20032.241569    153.964954
PR04  22874.354761  -9681.395823  -5757.316732    290.558134
PR05  17003.783065 -15491.973223  11004.213981     19.518623
PR07 -15972.281190  -1920.992592  19835.605971    -55.436989
PR08 -22887.581052   9203.205199   6551.081223     19.653734
PR09  -3019.814331 -24306.215842  -7224.534008     47.961053
PR10  -8849.733735 -13305.065335 -19927.727583     39.212398
PR11 -10740.280862   6725.512678 -22116.167372    -52.872386
PR13   2765.438090  24597.205387   6151.601591    -18.798266
PR14   9175.896879  13160.691197  19840.995597     34.740020
PR15  10671.181533  -5801.331523  22450.685526     99.210464
PR17  21483.576733  13719.383444   1405.386848    194.549124
PR18  20250.769941   4366.436677 -14822.782234     29.500577
PR19   8135.809201  -7147.494388 -23087.781651    -62.317163
PR20 -10180.765618 -15700.807499 -17344.700020   -364.970708
PR21 -21620.619099 -13484.242059   -823.651673    -24.453094
PR22 -19159.853855  -2847.837519  16678.322993    -64.321801
PR23  -3494.922625  10128.774517  23147.741422    201.976173
PR24  11666.795502  15736.359388  16312.590007   -175.822955
PR26  -8650.450537 -15099.941374 -18621.649145     15.023995
EOF
